[{"OBJECT_NAME":"STARLINK-35396","OBJECT_ID":"2025-221F","EPOCH":"2026-03-09T10:20:43.246176","MEAN_MOTION":15.30203428,"ECCENTRICITY":0.00012879,"INCLINATION":53.1592,"RA_OF_ASC_NODE":89.5566,"ARG_OF_PERICENTER":90.4869,"MEAN_ANOMALY":269.6279,"EPHEMERIS_TYPE":0,"CLASSIFICATION_TYPE":"U","NORAD_CAT_ID":65828,"ELEMENT_SET_NO":999,"REV_AT_EPOCH":2604,"BSTAR":0.0011167703,"MEAN_MOTION_DOT":0.00032866,"MEAN_MOTION_DDOT":0},{"OBJECT_NAME":"OBJECT P","OBJECT_ID":"2018-099P","EPOCH":"2026-03-09T16:35:55.790016","MEAN_MOTION":15.30834106,"ECCENTRICITY":0.00076856,"INCLINATION":97.4366,"RA_OF_ASC_NODE":131.9195,"ARG_OF_PERICENTER":276.7627,"MEAN_ANOMALY":83.2739,"EPHEMERIS_TYPE":0,"CLASSIFICATION_TYPE":"U","NORAD_CAT_ID":43771,"ELEMENT_SET_NO":999,"REV_AT_EPOCH":39830,"BSTAR":0.00063632878,"MEAN_MOTION_DOT":0.00018926,"MEAN_MOTION_DDOT":0}]
